[Satellite]
VERSION=1.1
NAME=DAURIA DX 1
NICKNAME=DAURIA DX 1
TLE1=1 40071U 14037C   20156.81824246  .00000112  00000-0  21921-4 0  9999
TLE2=2 40071  98.4600 334.5222 0008535 169.5240 190.6156 14.81365887319383
STATUS=0
